<?xml version="1.0" encoding="UTF-8"?>
<kml xmlns="http://www.opengis.net/kml/2.2"><Document><name>Pacheco Studios — Iași, semana 1</name>
<Style id="s0"><LineStyle><color>ff2e57e4</color><width>3</width></LineStyle><PolyStyle><color>402e57e4</color></PolyStyle></Style>
<Placemark><name>Segunda — Copou — à volta da universidade</name><description><![CDATA[15h00–18h00 · ≈ 3 km a pé dentro da zona · A pé (é a tua zona)
Ruas: Bd. Carol I, Parcul Copou e ruas à volta, Str. Lascăr Catargi, Ruas laterais entre a UAIC e o parque
Alvos: Cafés e pastelarias de estudantes, Copy-centers e papelarias, Clínicas dentárias e óticas, Salões e barbearias, Restaurantes de almoço
Dia de aquecimento: zona que já conheces, donos jovens, inglês funciona. Treina a abertura do guião aqui.]]></description><styleUrl>#s0</styleUrl><Polygon><outerBoundaryIs><LinearRing><coordinates>27.570000,47.181890,0 27.570691,47.181869,0 27.571377,47.181808,0 27.572052,47.181706,0 27.572712,47.181565,0 27.573351,47.181385,0 27.573965,47.181168,0 27.574548,47.180915,0 27.575097,47.180629,0 27.575607,47.180311,0 27.576074,47.179965,0 27.576495,47.179592,0 27.576867,47.179195,0 27.577186,47.178778,0 27.577451,47.178343,0 27.577659,47.177895,0 27.577809,47.177436,0 27.577899,47.176970,0 27.577929,47.176500,0 27.577899,47.176030,0 27.577809,47.175564,0 27.577659,47.175105,0 27.577451,47.174657,0 27.577186,47.174222,0 27.576867,47.173805,0 27.576495,47.173408,0 27.576074,47.173035,0 27.575607,47.172689,0 27.575097,47.172371,0 27.574548,47.172085,0 27.573965,47.171832,0 27.573351,47.171615,0 27.572712,47.171435,0 27.572052,47.171294,0 27.571377,47.171192,0 27.570691,47.171131,0 27.570000,47.171110,0 27.569309,47.171131,0 27.568623,47.171192,0 27.567948,47.171294,0 27.567288,47.171435,0 27.566649,47.171615,0 27.566035,47.171832,0 27.565452,47.172085,0 27.564903,47.172371,0 27.564393,47.172689,0 27.563926,47.173035,0 27.563505,47.173408,0 27.563133,47.173805,0 27.562814,47.174222,0 27.562549,47.174657,0 27.562341,47.175105,0 27.562191,47.175564,0 27.562101,47.176030,0 27.562071,47.176500,0 27.562101,47.176970,0 27.562191,47.177436,0 27.562341,47.177895,0 27.562549,47.178343,0 27.562814,47.178778,0 27.563133,47.179195,0 27.563505,47.179592,0 27.563926,47.179965,0 27.564393,47.180311,0 27.564903,47.180629,0 27.565452,47.180915,0 27.566035,47.181168,0 27.566649,47.181385,0 27.567288,47.181565,0 27.567948,47.181706,0 27.568623,47.181808,0 27.569309,47.181869,0 27.570000,47.181890,0</coordinates></LinearRing></outerBoundaryIs></Polygon></Placemark>
<Style id="s1"><LineStyle><color>ff12a7f3</color><width>3</width></LineStyle><PolyStyle><color>4012a7f3</color></PolyStyle></Style>
<Placemark><name>Terça — Centro — Piața Unirii e Lăpușneanu</name><description><![CDATA[15h00–18h00 · ≈ 3 km a pé dentro da zona · A pé, ~1,2 km a descer o Bd. Carol I
Ruas: Piața Unirii, Str. Lăpușneanu, Bd. Ștefan cel Mare și Sfânt, Str. Cuza Vodă
Alvos: Restaurantes com turistas, Cafés de especialidade, Pastelarias e gelatarias, Lojas independentes (roupa, presentes)
Zona mais disputada: os melhores vão ter site. Procura os de 4,5★ SEM site — são os que valem uma demo.]]></description><styleUrl>#s1</styleUrl><Polygon><outerBoundaryIs><LinearRing><coordinates>27.579000,47.170692,0 27.579576,47.170674,0 27.580147,47.170623,0 27.580710,47.170539,0 27.581260,47.170421,0 27.581792,47.170271,0 27.582303,47.170090,0 27.582789,47.169879,0 27.583247,47.169641,0 27.583671,47.169376,0 27.584061,47.169087,0 27.584412,47.168776,0 27.584721,47.168446,0 27.584987,47.168098,0 27.585208,47.167736,0 27.585381,47.167363,0 27.585506,47.166980,0 27.585581,47.166591,0 27.585606,47.166200,0 27.585581,47.165809,0 27.585506,47.165420,0 27.585381,47.165037,0 27.585208,47.164664,0 27.584987,47.164302,0 27.584721,47.163954,0 27.584412,47.163624,0 27.584061,47.163313,0 27.583671,47.163024,0 27.583247,47.162759,0 27.582789,47.162521,0 27.582303,47.162310,0 27.581792,47.162129,0 27.581260,47.161979,0 27.580710,47.161861,0 27.580147,47.161777,0 27.579576,47.161726,0 27.579000,47.161708,0 27.578424,47.161726,0 27.577853,47.161777,0 27.577290,47.161861,0 27.576740,47.161979,0 27.576208,47.162129,0 27.575697,47.162310,0 27.575211,47.162521,0 27.574753,47.162759,0 27.574329,47.163024,0 27.573939,47.163313,0 27.573588,47.163624,0 27.573279,47.163954,0 27.573013,47.164302,0 27.572792,47.164664,0 27.572619,47.165037,0 27.572494,47.165420,0 27.572419,47.165809,0 27.572394,47.166200,0 27.572419,47.166591,0 27.572494,47.166980,0 27.572619,47.167363,0 27.572792,47.167736,0 27.573013,47.168098,0 27.573279,47.168446,0 27.573588,47.168776,0 27.573939,47.169087,0 27.574329,47.169376,0 27.574753,47.169641,0 27.575211,47.169879,0 27.575697,47.170090,0 27.576208,47.170271,0 27.576740,47.170421,0 27.577290,47.170539,0 27.577853,47.170623,0 27.578424,47.170674,0 27.579000,47.170692,0</coordinates></LinearRing></outerBoundaryIs></Polygon></Placemark>
<Style id="s2"><LineStyle><color>ffab862e</color><width>3</width></LineStyle><PolyStyle><color>40ab862e</color></PolyStyle></Style>
<Placemark><name>Quarta — Palatul Culturii, Hala Centrală e Anastasie Panu</name><description><![CDATA[15h00–18h00 · ≈ 3–4 km a pé dentro da zona · A pé, ~2 km, ou elétrico até Palas
Ruas: Str. Anastasie Panu, Hala Centrală e ruas à volta, Str. Palat, Fim sul do Bd. Ștefan cel Mare
Alvos: Padarias e talhos independentes (à volta da Hala), Restaurantes e bistrôs, Serviços: explicações, fotografia, reparações
Ignora o Palas Mall: é tudo cadeias. O ouro está nas ruas à volta da Hala Centrală.]]></description><styleUrl>#s2</styleUrl><Polygon><outerBoundaryIs><LinearRing><coordinates>27.588500,47.162471,0 27.589099,47.162453,0 27.589693,47.162400,0 27.590278,47.162312,0 27.590850,47.162190,0 27.591403,47.162034,0 27.591935,47.161845,0 27.592440,47.161626,0 27.592916,47.161378,0 27.593358,47.161103,0 27.593762,47.160803,0 27.594127,47.160479,0 27.594449,47.160136,0 27.594726,47.159774,0 27.594955,47.159398,0 27.595136,47.159009,0 27.595265,47.158611,0 27.595343,47.158207,0 27.595370,47.157800,0 27.595343,47.157393,0 27.595265,47.156989,0 27.595136,47.156591,0 27.594955,47.156202,0 27.594726,47.155826,0 27.594449,47.155464,0 27.594127,47.155121,0 27.593762,47.154797,0 27.593358,47.154497,0 27.592916,47.154222,0 27.592440,47.153974,0 27.591935,47.153755,0 27.591403,47.153566,0 27.590850,47.153410,0 27.590278,47.153288,0 27.589693,47.153200,0 27.589099,47.153147,0 27.588500,47.153129,0 27.587901,47.153147,0 27.587307,47.153200,0 27.586722,47.153288,0 27.586150,47.153410,0 27.585597,47.153566,0 27.585065,47.153755,0 27.584560,47.153974,0 27.584084,47.154222,0 27.583642,47.154497,0 27.583238,47.154797,0 27.582873,47.155121,0 27.582551,47.155464,0 27.582274,47.155826,0 27.582045,47.156202,0 27.581864,47.156591,0 27.581735,47.156989,0 27.581657,47.157393,0 27.581630,47.157800,0 27.581657,47.158207,0 27.581735,47.158611,0 27.581864,47.159009,0 27.582045,47.159398,0 27.582274,47.159774,0 27.582551,47.160136,0 27.582873,47.160479,0 27.583238,47.160803,0 27.583642,47.161103,0 27.584084,47.161378,0 27.584560,47.161626,0 27.585065,47.161845,0 27.585597,47.162034,0 27.586150,47.162190,0 27.586722,47.162312,0 27.587307,47.162400,0 27.587901,47.162453,0 27.588500,47.162471,0</coordinates></LinearRing></outerBoundaryIs></Polygon></Placemark>
<Style id="s3"><LineStyle><color>ff934c6a</color><width>3</width></LineStyle><PolyStyle><color>40934c6a</color></PolyStyle></Style>
<Placemark><name>Quinta — Tătărași</name><description><![CDATA[15h00–18h00 · ≈ 3–4 km a pé dentro da zona · Autocarro/elétrico (~2,5 km da UAIC)
Ruas: Str. Vasile Lupu (eixo principal), Ruas comerciais paralelas
Alvos: Padarias e cafés de bairro, Salões e barbearias, Oficinas e serviços auto, Clínicas e farmácias independentes
Bairro residencial: negócios de clientela fixa, muitos só com Facebook. Argumento: aparecer no Google a quem se muda para o bairro.]]></description><styleUrl>#s3</styleUrl><Polygon><outerBoundaryIs><LinearRing><coordinates>27.604500,47.169839,0 27.605248,47.169817,0 27.605991,47.169750,0 27.606723,47.169640,0 27.607437,47.169487,0 27.608129,47.169292,0 27.608794,47.169057,0 27.609426,47.168783,0 27.610020,47.168473,0 27.610573,47.168129,0 27.611079,47.167753,0 27.611535,47.167349,0 27.611937,47.166920,0 27.612283,47.166468,0 27.612570,47.165997,0 27.612795,47.165511,0 27.612958,47.165014,0 27.613055,47.164509,0 27.613088,47.164000,0 27.613055,47.163491,0 27.612958,47.162986,0 27.612795,47.162489,0 27.612570,47.162003,0 27.612283,47.161532,0 27.611937,47.161080,0 27.611535,47.160651,0 27.611079,47.160247,0 27.610573,47.159871,0 27.610020,47.159527,0 27.609426,47.159217,0 27.608794,47.158943,0 27.608129,47.158708,0 27.607437,47.158513,0 27.606723,47.158360,0 27.605991,47.158250,0 27.605248,47.158183,0 27.604500,47.158161,0 27.603752,47.158183,0 27.603009,47.158250,0 27.602277,47.158360,0 27.601563,47.158513,0 27.600871,47.158708,0 27.600206,47.158943,0 27.599574,47.159217,0 27.598980,47.159527,0 27.598427,47.159871,0 27.597921,47.160247,0 27.597465,47.160651,0 27.597063,47.161080,0 27.596717,47.161532,0 27.596430,47.162003,0 27.596205,47.162489,0 27.596042,47.162986,0 27.595945,47.163491,0 27.595912,47.164000,0 27.595945,47.164509,0 27.596042,47.165014,0 27.596205,47.165511,0 27.596430,47.165997,0 27.596717,47.166468,0 27.597063,47.166920,0 27.597465,47.167349,0 27.597921,47.167753,0 27.598427,47.168129,0 27.598980,47.168473,0 27.599574,47.168783,0 27.600206,47.169057,0 27.600871,47.169292,0 27.601563,47.169487,0 27.602277,47.169640,0 27.603009,47.169750,0 27.603752,47.169817,0 27.604500,47.169839,0</coordinates></LinearRing></outerBoundaryIs></Polygon></Placemark>
<Style id="s4"><LineStyle><color>ff8b991b</color><width>3</width></LineStyle><PolyStyle><color>408b991b</color></PolyStyle></Style>
<Placemark><name>Sexta — Păcurari e zona da Gara</name><description><![CDATA[15h00–18h00 · ≈ 3–4 km a pé dentro da zona · A pé, ~1,5 km para oeste, ou autocarro
Ruas: Str. Păcurari (eixo principal), Zona da Gara Iași
Alvos: Clínicas dentárias e veterinárias, Oficinas, Restaurantes de bairro e take-away, Pequenos hotéis perto da estação
Perto da estação há alojamento pequeno que vive de reservas online — bom alvo para site com botão de reserva.]]></description><styleUrl>#s4</styleUrl><Polygon><outerBoundaryIs><LinearRing><coordinates>27.557000,47.174839,0 27.557749,47.174817,0 27.558491,47.174750,0 27.559223,47.174640,0 27.559938,47.174487,0 27.560630,47.174292,0 27.561294,47.174057,0 27.561926,47.173783,0 27.562521,47.173473,0 27.563073,47.173129,0 27.563579,47.172753,0 27.564036,47.172349,0 27.564438,47.171920,0 27.564784,47.171468,0 27.565071,47.170997,0 27.565296,47.170511,0 27.565458,47.170014,0 27.565556,47.169509,0 27.565589,47.169000,0 27.565556,47.168491,0 27.565458,47.167986,0 27.565296,47.167489,0 27.565071,47.167003,0 27.564784,47.166532,0 27.564438,47.166080,0 27.564036,47.165651,0 27.563579,47.165247,0 27.563073,47.164871,0 27.562521,47.164527,0 27.561926,47.164217,0 27.561294,47.163943,0 27.560630,47.163708,0 27.559938,47.163513,0 27.559223,47.163360,0 27.558491,47.163250,0 27.557749,47.163183,0 27.557000,47.163161,0 27.556251,47.163183,0 27.555509,47.163250,0 27.554777,47.163360,0 27.554062,47.163513,0 27.553370,47.163708,0 27.552706,47.163943,0 27.552074,47.164217,0 27.551479,47.164527,0 27.550927,47.164871,0 27.550421,47.165247,0 27.549964,47.165651,0 27.549562,47.166080,0 27.549216,47.166532,0 27.548929,47.167003,0 27.548704,47.167489,0 27.548542,47.167986,0 27.548444,47.168491,0 27.548411,47.169000,0 27.548444,47.169509,0 27.548542,47.170014,0 27.548704,47.170511,0 27.548929,47.170997,0 27.549216,47.171468,0 27.549562,47.171920,0 27.549964,47.172349,0 27.550421,47.172753,0 27.550927,47.173129,0 27.551479,47.173473,0 27.552074,47.173783,0 27.552706,47.174057,0 27.553370,47.174292,0 27.554062,47.174487,0 27.554777,47.174640,0 27.555509,47.174750,0 27.556251,47.174817,0 27.557000,47.174839,0</coordinates></LinearRing></outerBoundaryIs></Polygon></Placemark>
<Style id="s5"><LineStyle><color>ff3d28c5</color><width>3</width></LineStyle><PolyStyle><color>403d28c5</color></PolyStyle></Style>
<Placemark><name>Sábado — Podu Roș e Piața Nicolina</name><description><![CDATA[09h30–13h00 · ≈ 3–4 km a pé dentro da zona · Elétrico até Podu Roș (~3 km)
Ruas: Podu Roș, Bd. Nicolae Iorga, Piața Nicolina (mercado) e ruas à volta
Alvos: Bancas e lojas do mercado com marca própria (mel, queijo, charcutaria), Padarias e pastelarias, Floristas, Take-away
Sábado de manhã o mercado está cheio e os donos estão lá. Só cartão e conversa curta — nada de demos longas.]]></description><styleUrl>#s5</styleUrl><Polygon><outerBoundaryIs><LinearRing><coordinates>27.593000,47.152839,0 27.593748,47.152817,0 27.594491,47.152750,0 27.595222,47.152640,0 27.595936,47.152487,0 27.596628,47.152292,0 27.597293,47.152057,0 27.597924,47.151783,0 27.598519,47.151473,0 27.599071,47.151129,0 27.599577,47.150753,0 27.600033,47.150349,0 27.600435,47.149920,0 27.600781,47.149468,0 27.601068,47.148997,0 27.601293,47.148511,0 27.601455,47.148014,0 27.601553,47.147509,0 27.601585,47.147000,0 27.601553,47.146491,0 27.601455,47.145986,0 27.601293,47.145489,0 27.601068,47.145003,0 27.600781,47.144532,0 27.600435,47.144080,0 27.600033,47.143651,0 27.599577,47.143247,0 27.599071,47.142871,0 27.598519,47.142527,0 27.597924,47.142217,0 27.597293,47.141943,0 27.596628,47.141708,0 27.595936,47.141513,0 27.595222,47.141360,0 27.594491,47.141250,0 27.593748,47.141183,0 27.593000,47.141161,0 27.592252,47.141183,0 27.591509,47.141250,0 27.590778,47.141360,0 27.590064,47.141513,0 27.589372,47.141708,0 27.588707,47.141943,0 27.588076,47.142217,0 27.587481,47.142527,0 27.586929,47.142871,0 27.586423,47.143247,0 27.585967,47.143651,0 27.585565,47.144080,0 27.585219,47.144532,0 27.584932,47.145003,0 27.584707,47.145489,0 27.584545,47.145986,0 27.584447,47.146491,0 27.584415,47.147000,0 27.584447,47.147509,0 27.584545,47.148014,0 27.584707,47.148511,0 27.584932,47.148997,0 27.585219,47.149468,0 27.585565,47.149920,0 27.585967,47.150349,0 27.586423,47.150753,0 27.586929,47.151129,0 27.587481,47.151473,0 27.588076,47.151783,0 27.588707,47.152057,0 27.589372,47.152292,0 27.590064,47.152487,0 27.590778,47.152640,0 27.591509,47.152750,0 27.592252,47.152817,0 27.593000,47.152839,0</coordinates></LinearRing></outerBoundaryIs></Polygon></Placemark>
<Placemark><name>Base — UAIC</name><Point><coordinates>27.5717,47.1742,0</coordinates></Point></Placemark>
</Document></kml>
